#aV2012 10  9  0  0  0.00000000     288 DD+AD WGS84 FIT  NGA
## 1709 172800.00000000   300.00000000 56209 0.0000000000000
+   31     1  2  3  4  5  6  7  8  9 10 11 12 13 14 15 16 17
+         18 19 20 21 22 23 25 26 27 28 29 30 31 32  0  0  0
+          0  0  0  0  0  0  0  0  0  0  0  0  0  0  0  0  0
+          0  0  0  0  0  0  0  0  0  0  0  0  0  0  0  0  0
+          0  0  0  0  0  0  0  0  0  0  0  0  0  0  0  0  0
++         2  2  2  2  2  2  2  2  2  2  2  2  2  2  2  2  2
++         2  2  2  2  2  2  2  2  2  2  2  2  2  2  2  0  0
++         0  0  0  0  0  0  0  0  0  0  0  0  0  0  0  0  0
++         0  0  0  0  0  0  0  0  0  0  0  0  0  0  0  0  0
++         0  0  0  0  0  0  0  0  0  0  0  0  0  0  0  0  0
%c cc cc ccc ccc cccc cccc cccc cccc ccccc ccccc ccccc ccccc
%c cc cc ccc ccc cccc cccc cccc cccc ccccc ccccc ccccc ccccc
%f  0.0000000  0.000000000  0.00000000000  0.000000000000000
%f  0.0000000  0.000000000  0.00000000000  0.000000000000000
%i    0    0    0    0      0      0      0      0         0
%i    0    0    0    0      0      0      0      0         0
/*      NGA, ST. LOUIS,MO.                                  
/*   EPHEMERIS COMPUTED FROM  1 DAYS OF DATA
/*   EPOCHA SMOOTHER  
/* CCCCCCCCCCCCCCCCCCCCCCCCCCCCCCCCCCCCCCCCCCCCCCCCCCCCCCCCC
*  2012 10  9 20  0  0.00000000                                                 
P  1  22320.300692  14352.851412  -1714.600969    277.088103                    
V  1  -3256.867678   1321.664054 -31610.487743      0.016324                    
P  2  -6240.012016 -18715.495868  18159.827801    405.443860                    
V  2  20533.244424   9678.937929  16665.541311      0.011547                    
P  3    136.661604  18319.669372 -19649.907613    112.457183                    
V  3 -20021.534757  13458.992667  12982.610066      0.050402                    
P  4   9805.884298 -12261.493357  21171.294676     11.327321                    
V  4  23759.646032  14012.488599  -2550.895241      0.111956                    
P  5  -2517.881860 -26120.454827  -3612.879787   -358.261375                    
V  5   3238.196547  -4578.320944  31163.544399     -0.028121                    
P  6  -6435.355032  19103.219629 -17029.725431    488.792147                    
V  6 -19703.978780  10087.399219  18970.525048     -0.094299                    
P  7  23342.180832   4622.174421 -12059.754122    131.474299                    
V  7  12114.331860   9407.683066  26697.036197      0.044579                    
P  8  16276.892281  -4513.064624 -20570.903143      2.338771                    
V  8  20823.317607  15677.101666  12407.385773      0.001906                    
P  9 -19674.321724 -16599.389802  -6947.433324    191.226602                    
V  9   7969.431072   2362.584462 -30703.801615      0.026994                    
P 10   9549.661915 -20993.843852  12539.105453    -54.657434                    
V 10   2670.323467  16604.356261  25638.756533     -0.013617                    
P 11  20784.037925  13689.352963 -10099.121060   -311.120932                    
V 11 -12942.056615    960.334709 -26119.762436     -0.038967                    
P 12 -11621.987490 -15654.370382  18106.328687     95.301259                    
V 12   1852.291460 -22859.707824 -18370.700510      0.020303                    
P 13  24362.786063  -3766.512200   9898.169810    175.515412                    
V 13 -10831.243800   6869.644474  28774.195054     -0.026214                    
P 14 -21219.060184  14757.121487   5957.900118    214.485722                    
V 14  -7609.444255   1108.153959 -31001.613700      0.007961                    
P 15 -11908.079231 -10759.497425 -21195.601404    -96.962770                    
V 15  22805.162211 -14339.221520  -5308.266034     -0.007918                    
P 16   1214.247098  26095.133825  -3751.819253   -247.623280                    
V 16  -2602.251365   4664.931000  31958.887624     -0.006989                    
P 17  20641.536260 -15467.701332   5957.505222     89.308300                    
V 17   7838.412025   -932.136664 -30755.811739     -0.034364                    
P 18 -15397.002545   5393.508199 -20527.175917    218.901831                    
V 18   -762.383334 -27131.154229  -6791.924575      0.018244                    
P 19   8948.033936  12589.240187 -21706.561836   -311.396572                    
V 19 -24831.199788  11491.832836  -3188.737920     -0.034977                    
P 20  14234.440158  12762.744930  18303.667734     70.122927                    
V 20   -886.163539  23719.081837 -15638.265973      0.009548                    
P 21 -22690.863555  -1578.357765 -13642.999278   -254.853351                    
V 21 -14220.889222 -11404.696913  23513.945675     -0.023932                    
P 22 -10826.461944  19544.339174 -14076.314854    149.069685                    
V 22  -2807.994185 -18375.703167 -23172.998219      0.006390                    
P 23  18292.550090   4977.951268  18812.130174    156.074861                    
V 23 -20079.338128  12545.425487  15872.737286     -0.038986                    
P 25 -14965.382478  -1657.274787  21842.102927     45.858138                    
V 25     14.952836 -27798.098563  -2032.595937      0.015062                    
P 26   1293.195267 -16358.418754 -21430.085328   -252.102109                    
V 26  23748.294786 -10119.117232   9782.014877      0.134088                    
P 27 -18492.047658 -16844.909747  -9099.759213    440.232055                    
V 27  11557.202277   4314.210251 -29014.177532      0.041871                    
P 28  11941.923576 -16438.897839 -16425.399105    193.401993                    
V 28    501.508553  22039.612312 -21190.306150      0.036479                    
P 29 -23235.071133   1970.390894  12729.844387    364.336136                    
V 29  13310.143149  -9313.972039  25878.053318      0.041513                    
P 30  -2722.696985  25275.957594   7371.922511   -372.418343                    
V 30  -3621.104213  -9531.663156  29869.337192      0.186249                    
P 31  -6368.895059  13485.468224  22158.451982    279.662477                    
V 31 -23689.496535 -14214.422279   2098.615488      0.023536                    
P 32   7837.418289  21736.222674  13711.972082   -496.504335                    
V 32  -3574.643079  16679.072404 -24237.535791     -0.039071                    
EOF
